{
"type": "FeatureCollection",
"name": "paises",
"crs": { "type": "name", "properties": { "name": "urn:ogc:def:crs:OGC:1.3:CRS84" } },
"features": [
{ "type": "Feature", "properties": { "NAME": "Portugal" }, "geometry": { "type": "Polygon", "coordinates": [ [ [ -8.682958984374977, 42.008496093749997 ], [ -8.5380859375, 42.0693359375 ], [ -8.322558593749989, 42.115087890624999 ], [ -8.266064453124983, 42.137402343749997 ], [ -8.213085937499983, 42.133691406249994 ], [ -8.204199218749977, 42.111865234374996 ], [ -8.173583984375, 42.069384765624996 ], [ -8.139306640624994, 42.039941406249994 ], [ -8.129980468749977, 42.018164062499999 ], [ -8.213330078124983, 41.927099609374999 ], [ -8.224755859374994, 41.895849609374999 ], [ -8.173535156249983, 41.819970703124994 ], [ -8.152490234374994, 41.811962890624997 ], [ -8.094433593749983, 41.814208984375 ], [ -7.920849609374983, 41.883642578124999 ], [ -7.896386718749994, 41.870556640624997 ], [ -7.693066406249983, 41.888476562499996 ], [ -7.612597656249989, 41.857958984374996 ], [ -7.512597656249994, 41.835986328124996 ], [ -7.403613281249989, 41.833691406249997 ], [ -7.2685546875, 41.864404296874994 ], [ -7.209619140624994, 41.895263671875 ], [ -7.195361328124989, 41.955224609374994 ], [ -7.177929687499983, 41.9716796875 ], [ -7.147119140624994, 41.981152343749997 ], [ -7.030468749999983, 41.950634765624997 ], [ -6.865527343749989, 41.945263671874997 ], [ -6.833203124999983, 41.964160156249996 ], [ -6.777294921874983, 41.95849609375 ], [ -6.70361328125, 41.9345703125 ], [ -6.618261718749977, 41.9423828125 ], [ -6.575341796874994, 41.9130859375 ], [ -6.557519531249994, 41.874121093749999 ], [ -6.552587890624977, 41.78955078125 ], [ -6.558984375, 41.704052734374997 ], [ -6.542187499999983, 41.672509765624994 ], [ -6.484667968749989, 41.664404296874999 ], [ -6.391699218749977, 41.665380859374999 ], [ -6.308056640624983, 41.6421875 ], [ -6.243115234374983, 41.601806640625 ], [ -6.2125, 41.53203125 ], [ -6.244335937499983, 41.515917968749996 ], [ -6.289355468749989, 41.455029296874997 ], [ -6.403125, 41.375390625 ], [ -6.56591796875, 41.3037109375 ], [ -6.690136718749983, 41.214501953124994 ], [ -6.77578125, 41.107714843749996 ], [ -6.8828125, 41.062402343749994 ], [ -6.91552734375, 41.038037109374997 ], [ -6.928466796875, 41.009130859374999 ], [ -6.857714843749989, 40.878320312499994 ], [ -6.835888671874983, 40.777490234374994 ], [ -6.818359375, 40.654052734375 ], [ -6.829833984375, 40.619091796874997 ], [ -6.835693359375, 40.483154296875 ], [ -6.85205078125, 40.443261718749994 ], [ -6.847949218749989, 40.410986328124999 ], [ -6.82177734375, 40.376269531249996 ], [ -6.810156249999977, 40.343115234374999 ], [ -6.85888671875, 40.300732421874997 ], [ -7.014697265624989, 40.208349609374999 ], [ -7.032617187499994, 40.167919921874997 ], [ -7.02783203125, 40.142626953124996 ], [ -6.91640625, 40.056835937499997 ], [ -6.896093749999977, 40.021826171874999 ], [ -6.911181640624989, 39.937109375 ], [ -6.975390624999989, 39.798388671874996 ], [ -7.036718749999977, 39.713964843749999 ], [ -7.11767578125, 39.681689453124996 ], [ -7.4541015625, 39.6806640625 ], [ -7.535693359374989, 39.661572265624997 ], [ -7.445117187499989, 39.536181640624996 ], [ -7.33544921875, 39.465136718749996 ], [ -7.305761718749977, 39.338134765625 ], [ -7.172412109374989, 39.135205078124997 ], [ -7.04296875, 39.107080078124994 ], [ -6.997949218749994, 39.056445312499996 ], [ -7.00625, 38.985253906249994 ], [ -7.046044921874994, 38.90703125 ], [ -7.12548828125, 38.826953125 ], [ -7.219921874999983, 38.7705078125 ], [ -7.281542968749989, 38.714550781249997 ], [ -7.286376953125, 38.649365234374997 ], [ -7.305957031249989, 38.566845703124997 ], [ -7.335791015624977, 38.50146484375 ], [ -7.343017578125, 38.457421875 ], [ -7.106396484374983, 38.181005859374999 ], [ -6.974804687499983, 38.194433593749999 ], [ -6.957568359374989, 38.187890625 ], [ -6.981103515624994, 38.121972656249994 ], [ -7.022851562499994, 38.044726562499996 ], [ -7.185449218749994, 38.00634765625 ], [ -7.292236328125, 37.906445312499997 ], [ -7.37890625, 37.786376953125 ], [ -7.443945312499977, 37.728271484375 ], [ -7.503515624999977, 37.585498046874996 ], [ -7.496044921874983, 37.523583984374994 ], [ -7.406152343749994, 37.179443359375 ], [ -7.493603515624983, 37.168310546874999 ], [ -7.834130859374994, 37.005712890624999 ], [ -7.939697265625, 37.005419921874996 ], [ -8.136767578124989, 37.077050781249994 ], [ -8.484326171874983, 37.100048828124997 ], [ -8.59765625, 37.121337890625 ], [ -8.739111328124977, 37.074609375 ], [ -8.848437499999989, 37.07568359375 ], [ -8.935351562499989, 37.016015625 ], [ -8.997802734375, 37.032275390624996 ], [ -8.92626953125, 37.166064453124996 ], [ -8.814160156249983, 37.430810546874994 ], [ -8.818554687499983, 37.592431640624994 ], [ -8.791845703124977, 37.7328125 ], [ -8.82265625, 37.871875 ], [ -8.878955078124989, 37.958691406249997 ], [ -8.80224609375, 38.183837890625 ], [ -8.8109375, 38.299755859374997 ], [ -8.881103515625, 38.446679687499994 ], [ -8.668310546874977, 38.42431640625 ], [ -8.733984374999977, 38.482421875 ], [ -8.798876953124989, 38.518164062499999 ], [ -8.914794921875, 38.512109375 ], [ -9.095996093749989, 38.455224609374994 ], [ -9.186718749999983, 38.438183593749997 ], [ -9.21328125, 38.448095703124999 ], [ -9.203369140625, 38.538964843749994 ], [ -9.250390625, 38.65673828125 ], [ -9.177832031249977, 38.687792968749996 ], [ -9.093310546874989, 38.696679687499994 ], [ -9.021484375, 38.746875 ], [ -8.97705078125, 38.802929687499997 ], [ -9.00048828125, 38.903027343749997 ], [ -8.938085937499977, 38.998095703124996 ], [ -8.791601562499977, 39.078173828124996 ], [ -8.867480468749989, 39.065966796874996 ], [ -8.954296874999983, 39.016064453124997 ], [ -9.091015624999983, 38.834667968749997 ], [ -9.135791015624989, 38.742773437499999 ], [ -9.252294921874977, 38.712792968749994 ], [ -9.356738281249989, 38.697900390624994 ], [ -9.410205078124989, 38.70751953125 ], [ -9.47412109375, 38.730859375 ], [ -9.479736328125, 38.798779296874997 ], [ -9.474755859374994, 38.852929687499994 ], [ -9.431445312499989, 38.96044921875 ], [ -9.414355468749989, 39.112109375 ], [ -9.352832031249989, 39.248144531249999 ], [ -9.374755859375, 39.33828125 ], [ -9.319628906249989, 39.39111328125 ], [ -9.251416015624983, 39.426025390625 ], [ -9.148291015624977, 39.542578125 ], [ -9.004052734374994, 39.820556640625 ], [ -8.837841796874983, 40.115673828124997 ], [ -8.851318359375, 40.151806640624997 ], [ -8.886621093749994, 40.179443359375 ], [ -8.872656249999977, 40.259082031249996 ], [ -8.772412109374983, 40.605664062499997 ], [ -8.731591796874994, 40.650927734374996 ], [ -8.684619140624989, 40.752539062499999 ], [ -8.673974609374994, 40.91650390625 ], [ -8.655566406249989, 41.029492187499997 ], [ -8.674609374999989, 41.154492187499997 ], [ -8.738378906249977, 41.28466796875 ], [ -8.8056640625, 41.560009765624997 ], [ -8.810839843749989, 41.651953125 ], [ -8.755419921874989, 41.698388671874994 ], [ -8.846386718749983, 41.705175781249999 ], [ -8.887597656249994, 41.764599609374997 ], [ -8.878222656249989, 41.832080078124996 ], [ -8.777148437499989, 41.941064453124994 ], [ -8.682958984374977, 42.008496093749997 ] ] ] } },
{ "type": "Feature", "properties": { "NAME": "France" }, "geometry": { "type": "Polygon", "coordinates": [ [ [ 5.0, 43.431993006992997 ], [ 4.911914062500017, 43.426953125 ], [ 4.843554687500017, 43.393945312499994 ], [ 4.807910156250017, 43.405224609374997 ], [ 4.787207031250006, 43.401416015624996 ], [ 4.7890625, 43.37890625 ], [ 4.712109375000011, 43.373291015625 ], [ 4.628710937500017, 43.387109375 ], [ 4.376171875000011, 43.456396484374999 ], [ 4.22421875, 43.479638671874994 ], [ 4.162792968750011, 43.503662109375 ], [ 4.113085937500017, 43.563037109374996 ], [ 4.052636718750023, 43.593066406249996 ], [ 3.910839843750011, 43.563085937499999 ], [ 3.861621093750017, 43.516357421875 ], [ 3.784765625, 43.461621093749997 ], [ 3.258886718750006, 43.193212890624999 ], [ 3.162890625000017, 43.080761718749997 ], [ 3.0517578125, 42.915136718749999 ], [ 3.043066406250006, 42.837890625 ], [ 3.090917968750006, 42.590869140624996 ], [ 3.197851562500006, 42.461181640625 ], [ 3.21142578125, 42.43115234375 ], [ 3.152148437500017, 42.431005859374999 ], [ 2.970019531250017, 42.467236328124997 ], [ 2.891406250000017, 42.4560546875 ], [ 2.815625, 42.429248046874996 ], [ 2.701855468750011, 42.408496093749996 ], [ 2.670019531250006, 42.393017578124997 ], [ 2.651660156250017, 42.340478515624994 ], [ 2.56796875, 42.345800781249999 ], [ 2.200390625000011, 42.420947265624996 ], [ 2.098339843750011, 42.386083984374999 ], [ 2.03271484375, 42.353515625 ], [ 1.986523437500011, 42.358496093749999 ], [ 1.927929687500011, 42.426318359374996 ], [ 1.859765625000023, 42.457080078124996 ], [ 1.7060546875, 42.503320312499994 ], [ 1.713964843750006, 42.525634765625 ], [ 1.740234375, 42.556738281249999 ], [ 1.739453125000011, 42.575927734375 ], [ 1.709863281250023, 42.604443359374997 ], [ 1.501367187500023, 42.642724609374994 ], [ 1.458886718750023, 42.621679687499999 ], [ 1.428320312500006, 42.595898437499997 ], [ 1.349414062500017, 42.690673828125 ], [ 1.293261718750017, 42.7099609375 ], [ 1.208300781250017, 42.713134765625 ], [ 1.010058593750017, 42.778955078124994 ], [ 0.764453125000017, 42.838037109374994 ], [ 0.696875, 42.845117187499994 ], [ 0.669824218750023, 42.835742187499996 ], [ 0.651757812500023, 42.800439453124994 ], [ 0.641992187500023, 42.700634765624997 ], [ 0.631640625000017, 42.689599609374994 ], [ 0.517675781250006, 42.686279296875 ], [ 0.377246093750017, 42.700146484374997 ], [ 0.25546875, 42.692919921874996 ], [ 0.201367187500011, 42.719335937499999 ], [ -0.041162109374994, 42.689111328124994 ], [ -0.081494140624983, 42.703857421875 ], [ -0.140039062499994, 42.748925781249994 ], [ -0.205322265625, 42.785302734374994 ], [ -0.29931640625, 42.825341796874994 ], [ -0.338574218749983, 42.828808593749997 ], [ -0.3984375, 42.80810546875 ], [ -0.481152343749983, 42.79931640625 ], [ -0.58642578125, 42.798974609374994 ], [ -0.740185546874983, 42.909521484374999 ], [ -0.762646484374983, 42.939794921874999 ], [ -0.933837890625, 42.949511718749996 ], [ -1.175439453124994, 43.021142578124994 ], [ -1.285449218749989, 43.059619140624996 ], [ -1.301562499999989, 43.082470703124997 ], [ -1.300048828125, 43.100976562499994 ], [ -1.31884765625, 43.096972656249996 ], [ -1.370507812499994, 43.03759765625 ], [ -1.428759765624989, 43.036767578124994 ], [ -1.460839843749994, 43.0517578125 ], [ -1.48046875, 43.071142578124999 ], [ -1.422607421875, 43.149121093749997 ], [ -1.407324218749977, 43.197119140624999 ], [ -1.410693359374989, 43.240087890624999 ], [ -1.471728515624989, 43.267675781249999 ], [ -1.627148437499983, 43.282470703125 ], [ -1.712841796874983, 43.30703125 ], [ -1.753271484374977, 43.32470703125 ], [ -1.792724609375, 43.37255859375 ], [ -1.794042968749977, 43.407324218749999 ], [ -1.631445312499977, 43.438037109374996 ], [ -1.48486328125, 43.563769531249996 ], [ -1.345996093749989, 44.020214843749997 ], [ -1.256654992450454, 44.5 ], [ 5.0, 44.5 ], [ 5.0, 43.431993006992997 ] ] ] } }
]
}
